IRIDIUM 26              
1 24903U 97043A   25335.21206008  .00000396  00000+0  12610-3 0  9998
2 24903  86.3971  40.4075 0001982  97.1390 263.0033 14.37312699480737
IRIDIUM 22              
1 24907U 97043E   25335.21105941  .00000449  00000+0  14741-3 0  9992
2 24907  86.3975  44.0910 0002174  97.9063 262.2381 14.36108803480749
DUMMY MASS 1            
1 24925U 97048A   25335.23247485  .00000575  00000+0  60873-4 0  9997
2 24925  86.3352  58.0308 0004239 276.2235  83.8507 14.87166406529954
DUMMY MASS 2            
1 24926U 97048B   25335.22252118  .00000567  00000+0  60336-4 0  9991
2 24926  86.3353  59.6742 0005143 293.3599  66.7085 14.86916875529721
IRIDIUM 29              
1 24944U 97051A   25335.24315462  .00000553  00000+0  18128-3 0  9995
2 24944  86.3954  73.7701 0002290  95.4765 264.6693 14.36645908477251
IRIDIUM 33              
1 24946U 97051C   25335.27093770  .00000453  00000+0  15230-3 0  9995
2 24946  86.3871  73.0351 0005966 245.4047 114.6528 14.35023638476707
IRIDIUM 28              
1 24948U 97051E   25335.25056411  .00000538  00000+0  17319-3 0  9990
2 24948  86.3961  71.1868 0001602 101.9904 258.1474 14.37546520477844
IRIDIUM 36              
1 24967U 97056C   25334.77024579  .00000464  00000+0  14779-3 0  9997
2 24967  86.3952 103.0172 0001943 100.3428 259.7989 14.37765417476159
